HYPERFIELD-1A           
1 60562U 24149CY  26068.76488211  .00008569  00000+0  30052-3 0  9998
2 60562  97.3842 149.5066 0003865 313.7844  46.3076 15.29681349 86836
STARLINK-34093          
1 64015U 25101X   26068.14183799  .00038674  00000+0  14076-2 0  9996
2 64015  43.0048   0.8620 0001981 255.4344 104.6288 15.27578207 46978
